{
  "schema": "int-temerity-real-tle-snapshot/v1",
  "source": "celestrak",
  "group": "STARLINK",
  "format": "celestrak-gp-json",
  "source_url": "https://celestrak.org/NORAD/elements/gp.php?NAME=STARLINK&FORMAT=JSON",
  "downloaded_at": "2026-06-26T09:50:33.467Z",
  "generated_at": "2026-06-26T09:50:44.363Z",
  "fingerprint": "77a8ac15",
  "shell_id": "starlink-real-43deg-490km",
  "catalog_count": 10658,
  "shell_count": 3264,
  "selected_count": 1584,
  "mean_altitude_km": 490.2,
  "mean_inclination_deg": 43.0017,
  "mean_mean_motion_rev_per_day": 15.27576648,
  "layout": {
    "planes": 72,
    "satellites_per_plane": 22,
    "selection_strategy": "largest-shell-raan-clusters-even-slot-sampling",
    "raan_cluster_threshold_deg": 1.5
  },
  "satellites": [
    {
      "satellite_id": "P25-S13",
      "norad_id": 57258,
      "satellite_name": "STARLINK-5476",
      "cospar_id": "2023-094AS",
      "shell_id": "starlink-real-43deg-490km",
      "plane_id": 24,
      "slot_id": 12,
      "epoch": "2026-06-25T23:32:07.734912",
      "inclination": 43.0041,
      "raan": 128.14390000000003,
      "eccentricity": 0.0001036,
      "argument_of_perigee": 273.93679999999995,
      "mean_anomaly": 86.13650000000001,
      "mean_motion": 15.2757436,
      "bstar": 0.0000026848,
      "status": "active",
      "raw_omm": {
        "OBJECT_NAME": "STARLINK-5476",
        "OBJECT_ID": "2023-094AS",
        "EPOCH": "2026-06-25T23:32:07.734912",
        "MEAN_MOTION": 15.2757436,
        "ECCENTRICITY": 0.0001036,
        "INCLINATION": 43.0041,
        "RA_OF_ASC_NODE": 128.1439,
        "ARG_OF_PERICENTER": 273.9368,
        "MEAN_ANOMALY": 86.1365,
        "EPHEMERIS_TYPE": 0,
        "CLASSIFICATION_TYPE": "U",
        "NORAD_CAT_ID": 57258,
        "ELEMENT_SET_NO": 999,
        "REV_AT_EPOCH": 16380,
        "BSTAR": 0.0000026848,
        "MEAN_MOTION_DOT": -0.00000188,
        "MEAN_MOTION_DDOT": 0
      },
      "source": "celestrak",
      "source_url": "https://celestrak.org/NORAD/elements/gp.php?NAME=STARLINK&FORMAT=JSON",
      "catalog_fingerprint": "77a8ac15"
    },
    {
      "satellite_id": "P25-S14",
      "norad_id": 57245,
      "satellite_name": "STARLINK-5587",
      "cospar_id": "2023-094AD",
      "shell_id": "starlink-real-43deg-490km",
      "plane_id": 24,
      "slot_id": 13,
      "epoch": "2026-06-25T21:15:37.790784",
      "inclination": 43.0022,
      "raan": 129.15459999999996,
      "eccentricity": 0.00011,
      "argument_of_perigee": 245.48119999999994,
      "mean_anomaly": 114.59249999999997,
      "mean_motion": 15.27576423,
      "bstar": 0.000022576,
      "status": "active",
      "raw_omm": {
        "OBJECT_NAME": "STARLINK-5587",
        "OBJECT_ID": "2023-094AD",
        "EPOCH": "2026-06-25T21:15:37.790784",
        "MEAN_MOTION": 15.27576423,
        "ECCENTRICITY": 0.00011,
        "INCLINATION": 43.0022,
        "RA_OF_ASC_NODE": 129.1546,
        "ARG_OF_PERICENTER": 245.4812,
        "MEAN_ANOMALY": 114.5925,
        "EPHEMERIS_TYPE": 0,
        "CLASSIFICATION_TYPE": "U",
        "NORAD_CAT_ID": 57245,
        "ELEMENT_SET_NO": 999,
        "REV_AT_EPOCH": 16378,
        "BSTAR": 0.000022576,
        "MEAN_MOTION_DOT": 0.00000359,
        "MEAN_MOTION_DDOT": 0
      },
      "source": "celestrak",
      "source_url": "https://celestrak.org/NORAD/elements/gp.php?NAME=STARLINK&FORMAT=JSON",
      "catalog_fingerprint": "77a8ac15"
    },
    {
      "satellite_id": "P25-S15",
      "norad_id": 57247,
      "satellite_name": "STARLINK-5039",
      "cospar_id": "2023-094AF",
      "shell_id": "starlink-real-43deg-490km",
      "plane_id": 24,
      "slot_id": 14,
      "epoch": "2026-06-25T21:37:38.475264",
      "inclination": 43.0018,
      "raan": 128.41110000000003,
      "eccentricity": 0.000084,
      "argument_of_perigee": 265.65869999999995,
      "mean_anomaly": 94.4169,
      "mean_motion": 15.27566854,
      "bstar": -0.000016406,
      "status": "active",
      "raw_omm": {
        "OBJECT_NAME": "STARLINK-5039",
        "OBJECT_ID": "2023-094AF",
        "EPOCH": "2026-06-25T21:37:38.475264",
        "MEAN_MOTION": 15.27566854,
        "ECCENTRICITY": 0.000084,
        "INCLINATION": 43.0018,
        "RA_OF_ASC_NODE": 128.4111,
        "ARG_OF_PERICENTER": 265.6587,
        "MEAN_ANOMALY": 94.4169,
        "EPHEMERIS_TYPE": 0,
        "CLASSIFICATION_TYPE": "U",
        "NORAD_CAT_ID": 57247,
        "ELEMENT_SET_NO": 999,
        "REV_AT_EPOCH": 16379,
        "BSTAR": -0.000016406,
        "MEAN_MOTION_DOT": -0.00000713,
        "MEAN_MOTION_DDOT": 0
      },
      "source": "celestrak",
      "source_url": "https://celestrak.org/NORAD/elements/gp.php?NAME=STARLINK&FORMAT=JSON",
      "catalog_fingerprint": "77a8ac15"
    },
    {
      "satellite_id": "P25-S16",
      "norad_id": 57254,
      "satellite_name": "STARLINK-5490",
      "cospar_id": "2023-094AN",
      "shell_id": "starlink-real-43deg-490km",
      "plane_id": 24,
      "slot_id": 15,
      "epoch": "2026-06-25T21:46:53.730048",
      "inclination": 43.0029,
      "raan": 128.4586,
      "eccentricity": 0.0000833,
      "argument_of_perigee": 281.5941,
      "mean_anomaly": 78.48169999999999,
      "mean_motion": 15.27568466,
      "bstar": 0.000051435,
      "status": "active",
      "raw_omm": {
        "OBJECT_NAME": "STARLINK-5490",
        "OBJECT_ID": "2023-094AN",
        "EPOCH": "2026-06-25T21:46:53.730048",
        "MEAN_MOTION": 15.27568466,
        "ECCENTRICITY": 0.0000833,
        "INCLINATION": 43.0029,
        "RA_OF_ASC_NODE": 128.4586,
        "ARG_OF_PERICENTER": 281.5941,
        "MEAN_ANOMALY": 78.4817,
        "EPHEMERIS_TYPE": 0,
        "CLASSIFICATION_TYPE": "U",
        "NORAD_CAT_ID": 57254,
        "ELEMENT_SET_NO": 999,
        "REV_AT_EPOCH": 16379,
        "BSTAR": 0.000051435,
        "MEAN_MOTION_DOT": 0.00001153,
        "MEAN_MOTION_DDOT": 0
      },
      "source": "celestrak",
      "source_url": "https://celestrak.org/NORAD/elements/gp.php?NAME=STARLINK&FORMAT=JSON",
      "catalog_fingerprint": "77a8ac15"
    },
    {
      "satellite_id": "P25-S17",
      "norad_id": 57244,
      "satellite_name": "STARLINK-5610",
      "cospar_id": "2023-094AC",
      "shell_id": "starlink-real-43deg-490km",
      "plane_id": 24,
      "slot_id": 16,
      "epoch": "2026-06-25T21:22:48.937152",
      "inclination": 43.0013,
      "raan": 128.34249999999997,
      "eccentricity": 0.0000784,
      "argument_of_perigee": 256.31729999999993,
      "mean_anomaly": 103.75909999999999,
      "mean_motion": 15.2757779,
      "bstar": 0.0000013251,
      "status": "active",
      "raw_omm": {
        "OBJECT_NAME": "STARLINK-5610",
        "OBJECT_ID": "2023-094AC",
        "EPOCH": "2026-06-25T21:22:48.937152",
        "MEAN_MOTION": 15.2757779,
        "ECCENTRICITY": 0.0000784,
        "INCLINATION": 43.0013,
        "RA_OF_ASC_NODE": 128.3425,
        "ARG_OF_PERICENTER": 256.3173,
        "MEAN_ANOMALY": 103.7591,
        "EPHEMERIS_TYPE": 0,
        "CLASSIFICATION_TYPE": "U",
        "NORAD_CAT_ID": 57244,
        "ELEMENT_SET_NO": 999,
        "REV_AT_EPOCH": 16379,
        "BSTAR": 0.0000013251,
        "MEAN_MOTION_DOT": -0.00000225,
        "MEAN_MOTION_DDOT": 0
      },
      "source": "celestrak",
      "source_url": "https://celestrak.org/NORAD/elements/gp.php?NAME=STARLINK&FORMAT=JSON",
      "catalog_fingerprint": "77a8ac15"
    },
    {
      "satellite_id": "P25-S18",
      "norad_id": 57249,
      "satellite_name": "STARLINK-5517",
      "cospar_id": "2023-094AH",
      "shell_id": "starlink-real-43deg-490km",
      "plane_id": 24,
      "slot_id": 17,
      "epoch": "2026-06-26T04:05:20.380128",
      "inclination": 43.0031,
      "raan": 126.93240000000003,
      "eccentricity": 0.0000761,
      "argument_of_perigee": 296.7895,
      "mean_anomaly": 63.287800000000004,
      "mean_motion": 15.27570132,
      "bstar": -0.000008216,
      "status": "active",
      "raw_omm": {
        "OBJECT_NAME": "STARLINK-5517",
        "OBJECT_ID": "2023-094AH",
        "EPOCH": "2026-06-26T04:05:20.380128",
        "MEAN_MOTION": 15.27570132,
        "ECCENTRICITY": 0.0000761,
        "INCLINATION": 43.0031,
        "RA_OF_ASC_NODE": 126.9324,
        "ARG_OF_PERICENTER": 296.7895,
        "MEAN_ANOMALY": 63.2878,
        "EPHEMERIS_TYPE": 0,
        "CLASSIFICATION_TYPE": "U",
        "NORAD_CAT_ID": 57249,
        "ELEMENT_SET_NO": 999,
        "REV_AT_EPOCH": 16383,
        "BSTAR": -0.000008216,
        "MEAN_MOTION_DOT": -0.00000488,
        "MEAN_MOTION_DDOT": 0
      },
      "source": "celestrak",
      "source_url": "https://celestrak.org/NORAD/elements/gp.php?NAME=STARLINK&FORMAT=JSON",
      "catalog_fingerprint": "77a8ac15"
    }
  ]
}