STARLINK-5610           
1 57244U 23094AC  26176.89084418 -.00000225  00000+0  13251-5 0  9990
2 57244  43.0013 128.3425 0000784 256.3173 103.7591 15.27577790163798
STARLINK-5587           
1 57245U 23094AD  26176.88585407  .00000359  00000+0  22576-4 0  9990
2 57245  43.0022 129.1546 0001100 245.4812 114.5925 15.27576423163786
STARLINK-5039           
1 57247U 23094AF  26176.90113976 -.00000713  00000+0 -16406-4 0  9994
2 57247  43.0018 128.4111 0000839 265.6587  94.4169 15.27566854163798
STARLINK-5517           
1 57249U 23094AH  26177.17037477 -.00000488  00000+0 -82160-5 0  9997
2 57249  43.0031 126.9324 0000760 296.7895  63.2878 15.27570132163834
STARLINK-5490           
1 57254U 23094AN  26176.90756632  .00001153  00000+0  51435-4 0  9992
2 57254  43.0029 128.4586 0000832 281.5941  78.4817 15.27568466163791
STARLINK-5476           
1 57258U 23094AS  26176.98064509 -.00000188  00000+0  26848-5 0  9998
2 57258  43.0041 128.1439 0001036 273.9368  86.1365 15.27574360163804
